[{"OBJECT_NAME":"OBJECT D","OBJECT_ID":"2024-173D","EPOCH":"2026-03-09T23:30:29.956896","MEAN_MOTION":15.27005733,"ECCENTRICITY":0.00090093,"INCLINATION":97.3606,"RA_OF_ASC_NODE":149.3901,"ARG_OF_PERICENTER":241.6081,"MEAN_ANOMALY":118.425,"EPHEMERIS_TYPE":0,"CLASSIFICATION_TYPE":"U","NORAD_CAT_ID":61230,"ELEMENT_SET_NO":999,"REV_AT_EPOCH":8130,"BSTAR":0.00072064626,"MEAN_MOTION_DOT":0.00019078,"MEAN_MOTION_DDOT":0},{"OBJECT_NAME":"STARLINK-35989","OBJECT_ID":"2025-278AE","EPOCH":"2026-03-09T04:50:31.157664","MEAN_MOTION":15.27588589,"ECCENTRICITY":0.00015847,"INCLINATION":43.0011,"RA_OF_ASC_NODE":117.1875,"ARG_OF_PERICENTER":275.3817,"MEAN_ANOMALY":84.6854,"EPHEMERIS_TYPE":0,"CLASSIFICATION_TYPE":"U","NORAD_CAT_ID":66819,"ELEMENT_SET_NO":999,"REV_AT_EPOCH":1513,"BSTAR":0.0011589326,"MEAN_MOTION_DOT":0.00031775,"MEAN_MOTION_DDOT":0}]
